INMARSAT 4-F2           
1 28899U 05044A   25333.96321198 -.00000240  00000+0  00000+0 0  9999
2 28899   4.8338  43.6476 0003402 206.0884 309.6266  1.00272413 73520
GSAT-8                  
1 37605U 11022A   25334.08827274  .00000106  00000+0  00000+0 0  9997
2 37605   1.6139  84.3342 0008797 176.1495 255.5948  1.00271791 51227
LUCH-5A                 
1 37951U 11074B   25334.21865567 -.00000028  00000+0  00000+0 0  9994
2 37951   8.2454  76.7704 0005761 171.6693  66.5932  1.00273245 51059
SES-5                   
1 38652U 12036A   25334.07839269  .00000055  00000+0  00000+0 0  9995
2 38652   0.0594 302.0220 0001856 307.0183 213.3813  1.00270001 42474
GSAT-10                 
1 38779U 12051B   25334.04489198 -.00000143  00000+0  00000+0 0  9990
2 38779   0.0409 261.4621 0002773 234.0088  32.8644  1.00269815 48107
LUCH-5B                 
1 38977U 12061A   25334.00281889 -.00000119  00000+0  00000+0 0  9997
2 38977  10.0516  51.8208 0007510 187.2602 174.7304  1.00269398 47614
IRNSS-1A                
1 39199U 13034A   25328.85530985  .00000083  00000+0  00000+0 0  9994
2 39199  35.2693  66.8111 0021822 185.5557 174.6472  1.00276701 45324
ASTRA 5B                
1 39617U 14011B   25334.08203271  .00000159  00000+0  00000+0 0  9996
2 39617   0.0780  52.5795 0004601 210.0632 219.6278  1.00272572 42671
