{
  "type": "FeatureCollection",
  "features": [
    {
      "type": "Feature",
      "properties": {
        "OBJECT_NAME": "INMARSAT 4-F2 (SOUTHPAN/PRN 122)",
        "OBJECT_ID": "2005-044A",
        "EPOCH": "2025-11-29T23:07:01.515072",
        "MEAN_MOTION": 1.00272413,
        "ECCENTRICITY": 0.0003402,
        "INCLINATION": 4.8338,
        "RA_OF_ASC_NODE": 43.6476,
        "ARG_OF_PERICENTER": 206.0884,
        "MEAN_ANOMALY": 309.6266,
        "EPHEMERIS_TYPE": 0,
        "CLASSIFICATION_TYPE": "U",
        "NORAD_CAT_ID": 28899,
        "ELEMENT_SET_NO": 999,
        "REV_AT_EPOCH": 7352,
        "BSTAR": 0,
        "MEAN_MOTION_DOT": -2.4e-06,
        "MEAN_MOTION_DDOT": 0,
        "norad_id": 28899,
        "name": "INMARSAT 4-F2 (SOUTHPAN/PRN 122)",
        "group": "gnss",
        "longitude_deg": NaN,
        "latitude_deg": NaN,
        "alt_km": NaN,
        "orbit_class": "HEO",
        "timestamp": "2025-11-30T09:33:02.501310+00:00"
      },
      "geometry": {
        "type": "Point",
        "coordinates": [
          NaN,
          NaN
        ]
      }
    },
    {
      "type": "Feature",
      "properties": {
        "OBJECT_NAME": "GSAT-8 (GAGAN/PRN 127)",
        "OBJECT_ID": "2011-022A",
        "EPOCH": "2025-11-30T02:07:06.764736",
        "MEAN_MOTION": 1.00271791,
        "ECCENTRICITY": 0.0008797,
        "INCLINATION": 1.6139,
        "RA_OF_ASC_NODE": 84.3342,
        "ARG_OF_PERICENTER": 176.1495,
        "MEAN_ANOMALY": 255.5948,
        "EPHEMERIS_TYPE": 0,
        "CLASSIFICATION_TYPE": "U",
        "NORAD_CAT_ID": 37605,
        "ELEMENT_SET_NO": 999,
        "REV_AT_EPOCH": 5122,
        "BSTAR": 0,
        "MEAN_MOTION_DOT": 1.06e-06,
        "MEAN_MOTION_DDOT": 0,
        "norad_id": 37605,
        "name": "GSAT-8 (GAGAN/PRN 127)",
        "group": "gnss",
        "longitude_deg": NaN,
        "latitude_deg": NaN,
        "alt_km": NaN,
        "orbit_class": "HEO",
        "timestamp": "2025-11-30T09:33:02.502875+00:00"
      },
      "geometry": {
        "type": "Point",
        "coordinates": [
          NaN,
          NaN
        ]
      }
    },
    {
      "type": "Feature",
      "properties": {
        "OBJECT_NAME": "LUCH 5A (SDCM/PRN 140)",
        "OBJECT_ID": "2011-074B",
        "EPOCH": "2025-11-30T05:14:51.849888",
        "MEAN_MOTION": 1.00273245,
        "ECCENTRICITY": 0.0005761,
        "INCLINATION": 8.2454,
        "RA_OF_ASC_NODE": 76.7704,
        "ARG_OF_PERICENTER": 171.6693,
        "MEAN_ANOMALY": 66.5932,
        "EPHEMERIS_TYPE": 0,
        "CLASSIFICATION_TYPE": "U",
        "NORAD_CAT_ID": 37951,
        "ELEMENT_SET_NO": 999,
        "REV_AT_EPOCH": 5105,
        "BSTAR": 0,
        "MEAN_MOTION_DOT": -2.8e-07,
        "MEAN_MOTION_DDOT": 0,
        "norad_id": 37951,
        "name": "LUCH 5A (SDCM/PRN 140)",
        "group": "gnss",
        "longitude_deg": NaN,
        "latitude_deg": NaN,
        "alt_km": NaN,
        "orbit_class": "HEO",
        "timestamp": "2025-11-30T09:33:02.503181+00:00"
      },
      "geometry": {
        "type": "Point",
        "coordinates": [
          NaN,
          NaN
        ]
      }
    },
    {
      "type": "Feature",
      "properties": {
        "OBJECT_NAME": "SES-5 (EGNOS/PRN 136)",
        "OBJECT_ID": "2012-036A",
        "EPOCH": "2025-11-30T01:52:53.128416",
        "MEAN_MOTION": 1.00270001,
        "ECCENTRICITY": 0.0001856,
        "INCLINATION": 0.0594,
        "RA_OF_ASC_NODE": 302.022,
        "ARG_OF_PERICENTER": 307.0183,
        "MEAN_ANOMALY": 213.3813,
        "EPHEMERIS_TYPE": 0,
        "CLASSIFICATION_TYPE": "U",
        "NORAD_CAT_ID": 38652,
        "ELEMENT_SET_NO": 999,
        "REV_AT_EPOCH": 4247,
        "BSTAR": 0,
        "MEAN_MOTION_DOT": 5.5e-07,
        "MEAN_MOTION_DDOT": 0,
        "norad_id": 38652,
        "name": "SES-5 (EGNOS/PRN 136)",
        "group": "gnss",
        "longitude_deg": NaN,
        "latitude_deg": NaN,
        "alt_km": NaN,
        "orbit_class": "HEO",
        "timestamp": "2025-11-30T09:33:02.503426+00:00"
      },
      "geometry": {
        "type": "Point",
        "coordinates": [
          NaN,
          NaN
        ]
      }
    },
    {
      "type": "Feature",
      "properties": {
        "OBJECT_NAME": "GSAT-10 (GAGAN/PRN 128)",
        "OBJECT_ID": "2012-051B",
        "EPOCH": "2025-11-30T01:04:38.667072",
        "MEAN_MOTION": 1.00269815,
        "ECCENTRICITY": 0.0002773,
        "INCLINATION": 0.0409,
        "RA_OF_ASC_NODE": 261.4621,
        "ARG_OF_PERICENTER": 234.0088,
        "MEAN_ANOMALY": 32.8644,
        "EPHEMERIS_TYPE": 0,
        "CLASSIFICATION_TYPE": "U",
        "NORAD_CAT_ID": 38779,
        "ELEMENT_SET_NO": 999,
        "REV_AT_EPOCH": 4810,
        "BSTAR": 0,
        "MEAN_MOTION_DOT": -1.43e-06,
        "MEAN_MOTION_DDOT": 0,
        "norad_id": 38779,
        "name": "GSAT-10 (GAGAN/PRN 128)",
        "group": "gnss",
        "longitude_deg": NaN,
        "latitude_deg": NaN,
        "alt_km": NaN,
        "orbit_class": "HEO",
        "timestamp": "2025-11-30T09:33:02.503590+00:00"
      },
      "geometry": {
        "type": "Point",
        "coordinates": [
          NaN,
          NaN
        ]
      }
    },
    {
      "type": "Feature",
      "properties": {
        "OBJECT_NAME": "LUCH 5B (SDCM/PRN 125)",
        "OBJECT_ID": "2012-061A",
        "EPOCH": "2025-11-30T00:04:03.552096",
        "MEAN_MOTION": 1.00269398,
        "ECCENTRICITY": 0.000751,
        "INCLINATION": 10.0516,
        "RA_OF_ASC_NODE": 51.8208,
        "ARG_OF_PERICENTER": 187.2602,
        "MEAN_ANOMALY": 174.7304,
        "EPHEMERIS_TYPE": 0,
        "CLASSIFICATION_TYPE": "U",
        "NORAD_CAT_ID": 38977,
        "ELEMENT_SET_NO": 999,
        "REV_AT_EPOCH": 4761,
        "BSTAR": 0,
        "MEAN_MOTION_DOT": -1.19e-06,
        "MEAN_MOTION_DDOT": 0,
        "norad_id": 38977,
        "name": "LUCH 5B (SDCM/PRN 125)",
        "group": "gnss",
        "longitude_deg": NaN,
        "latitude_deg": NaN,
        "alt_km": NaN,
        "orbit_class": "HEO",
        "timestamp": "2025-11-30T09:33:02.503643+00:00"
      },
      "geometry": {
        "type": "Point",
        "coordinates": [
          NaN,
          NaN
        ]
      }
    },
    {
      "type": "Feature",
      "properties": {
        "OBJECT_NAME": "IRNSS-1A",
        "OBJECT_ID": "2013-034A",
        "EPOCH": "2025-11-24T20:31:38.771040",
        "MEAN_MOTION": 1.00276701,
        "ECCENTRICITY": 0.0021822,
        "INCLINATION": 35.2693,
        "RA_OF_ASC_NODE": 66.8111,
        "ARG_OF_PERICENTER": 185.5557,
        "MEAN_ANOMALY": 174.6472,
        "EPHEMERIS_TYPE": 0,
        "CLASSIFICATION_TYPE": "U",
        "NORAD_CAT_ID": 39199,
        "ELEMENT_SET_NO": 999,
        "REV_AT_EPOCH": 4532,
        "BSTAR": 0,
        "MEAN_MOTION_DOT": 8.3e-07,
        "MEAN_MOTION_DDOT": 0,
        "norad_id": 39199,
        "name": "IRNSS-1A",
        "group": "gnss",
        "longitude_deg": NaN,
        "latitude_deg": NaN,
        "alt_km": NaN,
        "orbit_class": "HEO",
        "timestamp": "2025-11-30T09:33:02.504006+00:00"
      },
      "geometry": {
        "type": "Point",
        "coordinates": [
          NaN,
          NaN
        ]
      }
    },
    {
      "type": "Feature",
      "properties": {
        "OBJECT_NAME": "ASTRA 5B (EGNOS/PRN 123)",
        "OBJECT_ID": "2014-011B",
        "EPOCH": "2025-11-30T01:58:07.626144",
        "MEAN_MOTION": 1.00272572,
        "ECCENTRICITY": 0.0004601,
        "INCLINATION": 0.078,
        "RA_OF_ASC_NODE": 52.5795,
        "ARG_OF_PERICENTER": 210.0632,
        "MEAN_ANOMALY": 219.6278,
        "EPHEMERIS_TYPE": 0,
        "CLASSIFICATION_TYPE": "U",
        "NORAD_CAT_ID": 39617,
        "ELEMENT_SET_NO": 999,
        "REV_AT_EPOCH": 4267,
        "BSTAR": 0,
        "MEAN_MOTION_DOT": 1.59e-06,
        "MEAN_MOTION_DDOT": 0,
        "norad_id": 39617,
        "name": "ASTRA 5B (EGNOS/PRN 123)",
        "group": "gnss",
        "longitude_deg": NaN,
        "latitude_deg": NaN,
        "alt_km": NaN,
        "orbit_class": "HEO",
        "timestamp": "2025-11-30T09:33:02.504507+00:00"
      },
      "geometry": {
        "type": "Point",
        "coordinates": [
          NaN,
          NaN
        ]
      }
    }
  ]
}